[{"OBJECT_NAME":"GEESAT-1 07","OBJECT_ID":"2022-058G","EPOCH":"2026-03-09T22:03:59.499360","MEAN_MOTION":14.81010409,"ECCENTRICITY":0.0013079,"INCLINATION":49.9882,"RA_OF_ASC_NODE":299.8665,"ARG_OF_PERICENTER":75.3998,"MEAN_ANOMALY":284.8389,"EPHEMERIS_TYPE":0,"CLASSIFICATION_TYPE":"U","NORAD_CAT_ID":52791,"ELEMENT_SET_NO":999,"REV_AT_EPOCH":20521,"BSTAR":0.0003741149,"MEAN_MOTION_DOT":2.71e-5,"MEAN_MOTION_DDOT":0},{"OBJECT_NAME":"EGYPTSAT 1","OBJECT_ID":"2007-012A","EPOCH":"2026-03-09T10:38:29.569920","MEAN_MOTION":14.79515309,"ECCENTRICITY":0.0006267,"INCLINATION":98.0485,"RA_OF_ASC_NODE":24.3877,"ARG_OF_PERICENTER":70.7892,"MEAN_ANOMALY":289.3997,"EPHEMERIS_TYPE":0,"CLASSIFICATION_TYPE":"U","NORAD_CAT_ID":31117,"ELEMENT_SET_NO":999,"REV_AT_EPOCH":1496,"BSTAR":0.00025301215,"MEAN_MOTION_DOT":1.839e-5,"MEAN_MOTION_DDOT":0}]
